[{"OBJECT_NAME":"STARLINK-33792","OBJECT_ID":"2025-071P","EPOCH":"2026-03-09T13:33:34.764480","MEAN_MOTION":15.30188086,"ECCENTRICITY":9.72e-5,"INCLINATION":53.1578,"RA_OF_ASC_NODE":140.3008,"ARG_OF_PERICENTER":104.7553,"MEAN_ANOMALY":255.3555,"EPHEMERIS_TYPE":0,"CLASSIFICATION_TYPE":"U","NORAD_CAT_ID":63506,"ELEMENT_SET_NO":999,"REV_AT_EPOCH":5270,"BSTAR":0.00075717,"MEAN_MOTION_DOT":0.00022125,"MEAN_MOTION_DDOT":0},{"OBJECT_NAME":"OBJECT P","OBJECT_ID":"2018-099P","EPOCH":"2026-03-09T16:35:55.790016","MEAN_MOTION":15.30834106,"ECCENTRICITY":0.00076856,"INCLINATION":97.4366,"RA_OF_ASC_NODE":131.9195,"ARG_OF_PERICENTER":276.7627,"MEAN_ANOMALY":83.2739,"EPHEMERIS_TYPE":0,"CLASSIFICATION_TYPE":"U","NORAD_CAT_ID":43771,"ELEMENT_SET_NO":999,"REV_AT_EPOCH":39830,"BSTAR":0.00063632878,"MEAN_MOTION_DOT":0.00018926,"MEAN_MOTION_DDOT":0}]
